0 OPS 4682 DEB
1 38400U 65027DD  13281.34866845  .00000472  00000-0  16137-2 0   909
2 38400 090.2948 258.4521 0032063 334.2883 025.6642 12.96735444503458
0 OPS 4682 DEB
1 38400U 65027DD  13283.35482320  .00000811  00000-0  27940-2 0   916
2 38400 090.2950 258.5057 0031849 329.2807 030.6448 12.96734997503718
0 OPS 4682 DEB
1 38400U 65027DD  13294.15715381  .00000334  00000-0  11347-2 0   927
2 38400 090.3039 258.8042 0030758 299.0650 060.7391 12.96743352505114
